IRIDIUM 921             
1 24873U 97034E   24218.60284731  .00041177  00000+0  93077-3 0  9993
2 24873  86.3765 263.5792 0005637  84.3815 275.8083 15.42986047482794
IRIDIUM 26              
1 24903U 97043A   24218.78817361  .00000721  00000+0  23924-3 0  9991
2 24903  86.3924 242.9377 0002504  89.1024 271.0460 14.36464450411453
IRIDIUM 22              
1 24907U 97043E   24219.16110630  .00000676  00000+0  22895-3 0  9998
2 24907  86.3926 246.0582 0002281  92.0886 268.0572 14.35350696411560
DUMMY MASS 1            
1 24925U 97048A   24219.21674691  .00000802  00000+0  87864-4 0  9990
2 24925  86.3328 280.8718 0007127 163.3249 196.8211 14.86319780458577
DUMMY MASS 2            
1 24926U 97048B   24218.92484002  .00000788  00000+0  86853-4 0  9993
2 24926  86.3331 282.5591 0007381 176.9452 183.1819 14.86076673458077
IRIDIUM 29              
1 24944U 97051A   24218.86953602  .00000676  00000+0  22683-3 0  9993
2 24944  86.3930 276.0737 0002178  99.3529 260.7914 14.35804107408016
IRIDIUM 33              
1 24946U 97051C   24218.87346116  .00000471  00000+0  16042-3 0  9997
2 24946  86.3845 275.3203 0009104  40.7881 319.3994 14.34438761407533
IRIDIUM 28              
1 24948U 97051E   24219.18868655  .00000703  00000+0  23170-3 0  9999
2 24948  86.3934 273.6332 0002565  85.3333 274.8157 14.36760167408671
